{"type": "FeatureCollection", "features": [ {"type": "Feature", "properties": {"norad_id": 33492, "name": "GOSAT (IBUKI)", "group": "resource", "lat": 65.7145683915186, "lon": 70.14268813898909, "alt_km": 661.8373976462826, "timestamp": "2025-12-05T18:53:12.953503+00:00", "meta": {"OBJECT_NAME": "GOSAT (IBUKI)", "OBJECT_ID": "2009-002A", "EPOCH": "2025-12-05T07:07:41.394432", "MEAN_MOTION": 14.67549486, "ECCENTRICITY": 9.599e-05, "INCLINATION": 98.0771, "RA_OF_ASC_NODE": 88.0039, "ARG_OF_PERICENTER": 85.5947, "MEAN_ANOMALY": 274.5368, "EPHEMERIS_TYPE": 0, "CLASSIFICATION_TYPE": "U", "NORAD_CAT_ID": 33492, "ELEMENT_SET_NO": 999, "REV_AT_EPOCH": 90302, "BSTAR": 0.00031598273, "MEAN_MOTION_DOT": 1.745e-05, "MEAN_MOTION_DDOT": 0}, "tle": {"line1": "1 33492U 09002A   25339.29700688  .00001745  00000+0  31598-3 0  9999", "line2": "2 33492  98.0771  88.0039 0000959  85.5947 274.5368 14.67549486903027"}}, "geometry": {"type": "Point", "coordinates": [70.14268813898909, 65.7145683915186]}}, {"type": "Feature", "properties": {"norad_id": 35681, "name": "DEIMOS-1", "group": "resource", "lat": -39.57432968755486, "lon": 147.1470543113901, "alt_km": 653.1360979771589, "timestamp": "2025-12-05T18:53:12.953514+00:00", "meta": {"OBJECT_NAME": "DEIMOS-1", "OBJECT_ID": "2009-041A", "EPOCH": "2025-12-05T07:40:14.681568", "MEAN_MOTION": 14.74934848, "ECCENTRICITY": 0.000269, "INCLINATION": 97.7146, "RA_OF_ASC_NODE": 140.2688, "ARG_OF_PERICENTER": 93.6149, "MEAN_ANOMALY": 266.5368, "EPHEMERIS_TYPE": 0, "CLASSIFICATION_TYPE": "U", "NORAD_CAT_ID": 35681, "ELEMENT_SET_NO": 999, "REV_AT_EPOCH": 87830, "BSTAR": 0.00020068529, "MEAN_MOTION_DOT": 1.301e-05, "MEAN_MOTION_DDOT": 0}, "tle": {"line1": "1 35681U 09041A   25339.31961437  .00001301  00000+0  20069-3 0  9997", "line2": "2 35681  97.7146 140.2688 0002690  93.6149 266.5368 14.74934848878301"}}, "geometry": {"type": "Point", "coordinates": [147.1470543113901, -39.57432968755486]}}, {"type": "Feature", "properties": {"norad_id": 35682, "name": "DUBAISAT-1", "group": "resource", "lat": -79.79138307979653, "lon": -120.58300997817496, "alt_km": 652.0237973890216, "timestamp": "2025-12-05T18:53:12.953525+00:00", "meta": {"OBJECT_NAME": "DUBAISAT-1", "OBJECT_ID": "2009-041B", "EPOCH": "2025-12-05T07:55:22.261728", "MEAN_MOTION": 14.74570115, "ECCENTRICITY": 0.00099937, "INCLINATION": 97.9785, "RA_OF_ASC_NODE": 110.1194, "ARG_OF_PERICENTER": 340.0066, "MEAN_ANOMALY": 20.075, "EPHEMERIS_TYPE": 0, "CLASSIFICATION_TYPE": "U", "NORAD_CAT_ID": 35682, "ELEMENT_SET_NO": 999, "REV_AT_EPOCH": 87652, "BSTAR": 0.00039996235, "MEAN_MOTION_DOT": 2.615e-05, "MEAN_MOTION_DDOT": 0}, "tle": {"line1": "1 35682U 09041B   25339.33011877  .00002615  00000+0  39996-3 0  9992", "line2": "2 35682  97.9785 110.1194 0009993 340.0066  20.0750 14.74570115876524"}}, "geometry": {"type": "Point", "coordinates": [-120.58300997817496, -79.79138307979653]}}, {"type": "Feature", "properties": {"norad_id": 35931, "name": "OCEANSAT-2", "group": "resource", "lat": 24.523094999619843, "lon": 164.8751487764138, "alt_km": 894.7800013694232, "timestamp": "2025-12-05T18:53:12.953536+00:00", "meta": {"OBJECT_NAME": "OCEANSAT-2", "OBJECT_ID": "2009-051A", "EPOCH": "2025-12-05T06:08:24.244224", "MEAN_MOTION": 13.9962634, "ECCENTRICITY": 0.00165099, "INCLINATION": 98.2229, "RA_OF_ASC_NODE": 340.6154, "ARG_OF_PERICENTER": 64.5301, "MEAN_ANOMALY": 295.7571, "EPHEMERIS_TYPE": 0, "CLASSIFICATION_TYPE": "U", "NORAD_CAT_ID": 35931, "ELEMENT_SET_NO": 999, "REV_AT_EPOCH": 85220, "BSTAR": -7.1622548e-05, "MEAN_MOTION_DOT": -1.42e-06, "MEAN_MOTION_DDOT": 0}, "tle": {"line1": "1 35931U 09051A   25339.25583616 -.00000142  00000+0 -71623-4 0  9995", "line2": "2 35931  98.2229 340.6154 0016509  64.5301 295.7571 13.99626340852204"}}, "geometry": {"type": "Point", "coordinates": [164.8751487764138, 24.523094999619843]}}, {"type": "Feature", "properties": {"norad_id": 35946, "name": "WORLDVIEW-2 (WV-2)", "group": "resource", "lat": 44.56775642327614, "lon": 42.52088774848463, "alt_km": 759.4098202386858, "timestamp": "2025-12-05T18:53:12.953546+00:00", "meta": {"OBJECT_NAME": "WORLDVIEW-2 (WV-2)", "OBJECT_ID": "2009-055A", "EPOCH": "2025-12-05T06:59:06.116928", "MEAN_MOTION": 14.37647493, "ECCENTRICITY": 0.00054198, "INCLINATION": 98.4769, "RA_OF_ASC_NODE": 50.4794, "ARG_OF_PERICENTER": 84.7742, "MEAN_ANOMALY": 275.4064, "EPHEMERIS_TYPE": 0, "CLASSIFICATION_TYPE": "U", "NORAD_CAT_ID": 35946, "ELEMENT_SET_NO": 999, "REV_AT_EPOCH": 84778, "BSTAR": 0.00014394895, "MEAN_MOTION_DOT": 3.89e-06, "MEAN_MOTION_DDOT": 0}, "tle": {"line1": "1 35946U 09055A   25339.29104302  .00000389  00000+0  14395-3 0  9993", "line2": "2 35946  98.4769  50.4794 0005419  84.7742 275.4064 14.37647493847782"}}, "geometry": {"type": "Point", "coordinates": [42.52088774848463, 44.56775642327614]}}, {"type": "Feature", "properties": {"norad_id": 36036, "name": "SMOS", "group": "resource", "lat": 28.599294246226364, "lon": 160.29560776653477, "alt_km": 757.3005835723388, "timestamp": "2025-12-05T18:53:12.953556+00:00", "meta": {"OBJECT_NAME": "SMOS", "OBJECT_ID": "2009-059A", "EPOCH": "2025-12-05T00:24:22.906656", "MEAN_MOTION": 14.39791838, "ECCENTRICITY": 0.0001007, "INCLINATION": 98.4384, "RA_OF_ASC_NODE": 164.1795, "ARG_OF_PERICENTER": 72.0682, "MEAN_ANOMALY": 288.0616, "EPHEMERIS_TYPE": 0, "CLASSIFICATION_TYPE": "U", "NORAD_CAT_ID": 36036, "ELEMENT_SET_NO": 999, "REV_AT_EPOCH": 84551, "BSTAR": 0.00026241046, "MEAN_MOTION_DOT": 7.79e-06, "MEAN_MOTION_DDOT": 0}, "tle": {"line1": "1 36036U 09059A   25339.01693179  .00000779  00000+0  26241-3 0  9999", "line2": "2 36036  98.4384 164.1795 0001007  72.0682 288.0616 14.39791838845519"}}, "geometry": {"type": "Point", "coordinates": [160.29560776653477, 28.599294246226364]}}, {"type": "Feature", "properties": {"norad_id": 36110, "name": "YAOGAN-7", "group": "resource", "lat": -15.25456201450133, "lon": -136.2251331609788, "alt_km": 628.5159184355189, "timestamp": "2025-12-05T18:53:12.953566+00:00", "meta": {"OBJECT_NAME": "YAOGAN-7", "OBJECT_ID": "2009-069A", "EPOCH": "2025-12-05T04:19:49.035360", "MEAN_MOTION": 14.77714891, "ECCENTRICITY": 0.00236966, "INCLINATION": 98.0303, "RA_OF_ASC_NODE": 220.9642, "ARG_OF_PERICENTER": 306.8759, "MEAN_ANOMALY": 53.0279, "EPHEMERIS_TYPE": 0, "CLASSIFICATION_TYPE": "U", "NORAD_CAT_ID": 36110, "ELEMENT_SET_NO": 999, "REV_AT_EPOCH": 86097, "BSTAR": 0.0001935316, "MEAN_MOTION_DOT": 1.34e-05, "MEAN_MOTION_DDOT": 0}, "tle": {"line1": "1 36110U 09069A   25339.18042865  .00001340  00000+0  19353-3 0  9992", "line2": "2 36110  98.0303 220.9642 0023696 306.8759  53.0279 14.77714891860970"}}, "geometry": {"type": "Point", "coordinates": [-136.2251331609788, -15.25456201450133]}}, {"type": "Feature", "properties": {"norad_id": 36605, "name": "TANDEM-X", "group": "resource", "lat": -80.94303094446863, "lon": 40.391918538029586, "alt_km": 517.0412227053002, "timestamp": "2025-12-05T18:53:12.953576+00:00", "meta": {"OBJECT_NAME": "TANDEM-X", "OBJECT_ID": "2010-030A", "EPOCH": "2025-12-04T14:48:17.883360", "MEAN_MOTION": 15.19148899, "ECCENTRICITY": 0.00018635, "INCLINATION": 97.4452, "RA_OF_ASC_NODE": 344.1166, "ARG_OF_PERICENTER": 95.4078, "MEAN_ANOMALY": 264.7369, "EPHEMERIS_TYPE": 0, "CLASSIFICATION_TYPE": "U", "NORAD_CAT_ID": 36605, "ELEMENT_SET_NO": 999, "REV_AT_EPOCH": 85710, "BSTAR": 0.00011882384, "MEAN_MOTION_DOT": 2.429e-05, "MEAN_MOTION_DDOT": 0}, "tle": {"line1": "1 36605U 10030A   25338.61687365  .00002429  00000+0  11882-3 0  9996", "line2": "2 36605  97.4452 344.1166 0001863  95.4078 264.7369 15.19148899857102"}}, "geometry": {"type": "Point", "coordinates": [40.391918538029586, -80.94303094446863]}}, {"type": "Feature", "properties": {"norad_id": 36795, "name": "CARTOSAT-2B", "group": "resource", "lat": -64.95755202380158, "lon": -167.98708918445567, "alt_km": 648.1142782314846, "timestamp": "2025-12-05T18:53:12.953587+00:00", "meta": {"OBJECT_NAME": "CARTOSAT-2B", "OBJECT_ID": "2010-035A", "EPOCH": "2025-12-05T06:24:38.686752", "MEAN_MOTION": 14.78771548, "ECCENTRICITY": 0.0012898, "INCLINATION": 97.7864, "RA_OF_ASC_NODE": 28.5399, "ARG_OF_PERICENTER": 99.5549, "MEAN_ANOMALY": 260.712, "EPHEMERIS_TYPE": 0, "CLASSIFICATION_TYPE": "U", "NORAD_CAT_ID": 36795, "ELEMENT_SET_NO": 999, "REV_AT_EPOCH": 83119, "BSTAR": 0.00021079409, "MEAN_MOTION_DOT": 1.501e-05, "MEAN_MOTION_DDOT": 0}, "tle": {"line1": "1 36795U 10035A   25339.26711443  .00001501  00000+0  21079-3 0  9997", "line2": "2 36795  97.7864  28.5399 0012898  99.5549 260.7120 14.78771548831190"}}, "geometry": {"type": "Point", "coordinates": [-167.98708918445567, -64.95755202380158]}}, {"type": "Feature", "properties": {"norad_id": 36834, "name": "YAOGAN-10", "group": "resource", "lat": -0.8014434865540117, "lon": 179.54854803360388, "alt_km": 618.2016138050203, "timestamp": "2025-12-05T18:53:12.953597+00:00", "meta": {"OBJECT_NAME": "YAOGAN-10", "OBJECT_ID": "2010-038A", "EPOCH": "2025-12-05T08:25:03.073728", "MEAN_MOTION": 14.84563889, "ECCENTRICITY": 0.00015191, "INCLINATION": 97.9143, "RA_OF_ASC_NODE": 359.2271, "ARG_OF_PERICENTER": 85.3891, "MEAN_ANOMALY": 285.3275, "EPHEMERIS_TYPE": 0, "CLASSIFICATION_TYPE": "U", "NORAD_CAT_ID": 36834, "ELEMENT_SET_NO": 999, "REV_AT_EPOCH": 82844, "BSTAR": 0.00039292069, "MEAN_MOTION_DOT": 3.263e-05, "MEAN_MOTION_DDOT": 0}, "tle": {"line1": "1 36834U 10038A   25339.35073002  .00003263  00000+0  39292-3 0  9999", "line2": "2 36834  97.9143 359.2271 0001519  85.3891 285.3275 14.84563889828442"}}, "geometry": {"type": "Point", "coordinates": [179.54854803360388, -0.8014434865540117]}}]}